#dP2022 10 12 12  0  0.00000000      96 __u+U ITR00 EXT  IAC
## 2231 302400.00000000   900.00000000 59864 0.5000000000000
+  118   C06C07C08C09C10C11C12C13C14C16C19C20C21C22C23C24C25
+        C26C27C28C29C30C32C33C34C35C36C37C38C39C40C41C42C43
+        C44C45C46E01E02E03E04E05E07E08E09E10E11E12E13E14E15
+        E18E19E21E24E25E26E27E30E31E33E34E36G01G02G03G04G05
+        G06G07G08G09G10G11G12G13G14G15G16G17G18G19G20G21G22
+        G23G24G25G26G27G28G29G30G31G32J02J03J04R01R02R03R04
+        R05R07R08R09R11R12R13R14R15R17R18R19R20R21R22R24  0
++        11  8  9 11  9 10  8  9  8 11  8  8  9  7  9 10  9
++         9  9  7  8  8  7  9  8  7  9  8  7 11  9  7  9 11
++         8  9  8  7  9  8  7  8  8  7  6  8  7  7  8  9  9
++         9  8  8  8  8  7  7  8  7  8  8  8  7  6  7  8  8
++         8  8  8  7  7  8  7  6  8  8  7  7  8  7  6  7  7
++         9  7  6  8  6  8  7  8  7  7  9 14 10  9  9  6  7
++         9  9  9  9  8  8 10  8  9  9  6  9 10  8  8  7  0
%c M  cc GPS ccc cccc cccc cccc cccc ccccc ccccc ccccc ccccc
%c cc cc ccc ccc cccc cccc cccc cccc ccccc ccccc ccccc ccccc
%f  0.0000000  0.000000000  0.00000000000  0.000000000000000
%f  0.0000000  0.000000000  0.00000000000  0.000000000000000
%i    0    0    0    0      0      0      0      0         0
%i    0    0    0    0      0      0      0      0         0
/* IAC                                ULTRA-RAPID PREDICTION
/* S/V CLOCKS ARE ALIGNED TO GNSS TIME                      
/* G:C1WC2W R:C1PC2P E:C1XC5X C:C2IC6I J:C1CC2S             
/* PCV:IGS14_2218 OL/AL:FES2004  NONE     YN ORB:CoN CLK:CoN
*  2022 10 13  0 15  0.00000000
PC06 -18750.791780  30040.647657 -23058.086836    896.924595
PC07  -6749.547348  39212.899489 -13660.185204   -268.550739
PC08  -3318.110692  21417.954553  36179.846061    493.023100
PC09  -9999.738988  28641.336476 -29132.414493   -836.514671
PC10   -601.315299  41246.256468  -7020.259569     84.512364
PC11 -23607.811897  14549.455997  -2856.279641   -354.869517
PC12 -21123.187394    603.026432 -18172.181651   -484.386206
PC13   5563.977449  25656.111918  33203.874642    105.336010
PC14 -13082.602806  12547.726332  21211.537337    566.459105
PC16 -23047.219844  29431.055059 -19582.393922    129.775332
PC19   8140.122501 -21458.925397 -15869.659655   -862.955429
PC20  15378.873409  -3761.017572 -22978.197199    865.662276
PC21 -13836.192198 -17560.162880  16718.089547   -591.014332
PC22  -4072.019591 -27609.428998    716.394729   -854.179957
PC23   6808.036265  18371.206786 -19866.914454   -528.049247
PC24 -25799.395606  -2884.839483 -10206.247474   -584.555205
PC25 -12324.843119  12070.039789 -21937.539925      8.872755
PC26 -23670.942744 -13624.980658   5621.304860    -20.635359
PC27  15671.736987   7270.759387  21896.358873     35.025057
PC28  -1303.228178  18761.931668  20618.914649     23.628665
PC29  17964.262819 -20318.333386  -6588.258474     26.019241
PC30  23827.304123  -8938.347003  11429.362606      0.487539
PC32  13943.215656  17528.332936 -16636.884512   -761.992423
PC33  -8109.529489  21404.830744  15950.389398   -897.414864
PC34 -23957.124211   9817.843408 -10441.036346     15.412544
PC35   2054.842572 -19440.376157 -19910.925212     39.154887
PC36  13222.724802 -11410.236876  21792.940505   -657.794474
PC37  22681.575512  14782.243864  -6806.293107   -489.298635
PC38 -12295.597872  19673.399908  35215.678636     30.680915
PC39 -25388.258802  30221.630583 -15088.936677     -0.614646
PC40 -11533.752445  36308.727876 -17837.233203     -5.917191
PC41   3788.890181  27648.348259   -125.508668   -167.325669
PC42 -15662.291153   2369.816606  23008.408579   -463.343433
PC43 -18511.223040  20058.922220   5841.609350     19.263753
PC44 -15878.487631  -6970.877362 -21877.641879     79.666524
PC45  -7199.564334 -18307.467829  19787.338650     -9.073508
PC46  25298.333988   1630.345880  11716.557668     -5.904254
PE01  20958.702652   4984.354056  20309.758076   -545.580063
PE02 -20891.535000  -4786.277232 -20403.557331    330.377825
PE03 -19355.514566   7498.763232  21089.285458   -609.156447
PE04  15585.092475 -24212.047411  -6859.193785  -1135.377296
PE05 -11830.008626 -14001.264748  23237.585365   -135.105713
PE07  -2444.710054  27010.998380 -11850.684570   -712.789251
PE08 -15452.727523  24295.976697   6835.095234   -614.389527
PE09   2575.405055 -27049.900864  11750.837909   -691.152459
PE10  10704.907456 -15983.370414 -22508.279601   -483.265224
PE11  -1591.937409 -16026.234328 -24844.418354   1817.134792
PE12  20342.669553 -13469.445758 -16759.341028   -219.015126
PE13    621.333178  16052.119130  24864.907803    430.671818
PE14  19776.307922 -18704.277130   8536.147742     26.029108
PE15 -20523.646432  13377.302141  16614.402292    714.441163
PE18 -21436.851773   6307.342522 -17664.717401   -868.432363
PE19  18895.226091  -4636.729279 -22307.370060  -4282.156603
PE21  20487.760838  20483.605730   6087.252454   -763.097269
PE24  -7296.839346 -25333.119296  13431.345141   -887.958947
PE25 -20369.744846 -20676.814287  -5779.445658   -590.040365
PE26  21903.938451   8987.149103  17777.644197  -1720.347399
PE27   8267.879833  25469.872995 -12616.586576   -413.957537
PE30  -9452.831535  14746.767642 -23865.269870   -911.523335
PE31   8722.058321 -15409.808077  23733.006106   -505.611268
PE33  29434.872004  -2817.218249   1400.128967   -454.647032
PE34 -29414.496670   2979.980675  -1224.943222     -9.167702
PE36 -21189.309859  -9292.346288 -18456.860002   -445.026038
PG01 -10901.067786 -13351.103760 -20614.676818    268.507756
PG02   7712.590067  14194.458401  21709.456702   -642.591464
PG03 -11356.898634 -23711.087767  -4297.995950   -363.766770
PG04  -3458.547810 -19150.995309  18033.453955   -104.515371
PG05   3034.587786  22009.322402  14284.087187   -100.167525
PG06 -23882.265340   6916.217555   9505.076418    489.446912
PG07 -23715.935796  -6973.284575  10766.442954    299.290058
PG08   3873.220922 -23926.139458 -10465.967044    -88.599890
PG09 -12640.942760  -8809.155946  21554.068064   -283.999718
PG10  17475.005699   2641.748405 -19773.035719     -7.243021
PG11 -15233.488225  12198.657273  18001.775001    -25.217193
PG12   9358.009647  24526.989286  -4656.964866   -291.552018
PG13 -12508.078612  22863.671368  -4748.269190    404.945948
PG14 -18195.435124  -4722.918376 -18798.177968    -95.632811
PG15   -484.157863  24301.341776 -10794.336154    -21.394947
PG16   4470.471831 -18582.973891  17963.868219   -526.116503
PG17 -17991.386016   5677.913778 -18281.338905    668.169091
PG18  24351.605232   5818.471412   9071.841446     16.757152
PG19 -19138.811651  14393.658880 -11442.360197    223.020206
PG20  -7996.644393  14036.797028  21123.528738    478.863972
PG21  -1886.411876 -14797.215010 -21363.475439    158.109919
PG22  18032.900240 -17320.925531  -8272.114459    344.622462
PG23  19311.132111  12601.657929 -13305.911433     -0.953477
PG24   7056.702118  14929.150862 -21187.024827    102.057667
PG25  17131.049809  19643.000964   5525.301960    381.759940
PG26  11696.851826 -10575.455987  21265.537833    232.223704
PG27  12510.541629 -23176.009326    270.036236    198.949811
PG28 -14126.825050   4859.735031 -21445.714235    329.729520
PG29  10574.513800  10712.917490  21832.075347   -559.154836
PG30 -26679.961221    890.455268   -467.667326   -537.227043
PG31  23652.168250  -7360.092371  10040.377930   -196.582392
PG32  18132.294184  -9036.904933 -16922.463360   -261.543002
PJ02 -20670.242886  21105.762846 -25552.698641     -7.096232
PJ03 -30150.560279  28728.274617  11697.098723     -2.815503
PJ04 -26934.489581  27665.800487  22998.477782    111.787788
PR01  -6420.373905 -19864.557161  14657.105709     16.161638
PR02 -10815.995933  -1179.015162  23105.769667    -22.958364
PR03  -8943.796774  17005.366508  16849.318779     65.371956
PR04  -2220.277498  25382.380378   1412.464848    160.958709
PR05   5658.270566  19981.621073 -14828.492205    101.153302
PR07   8710.080452 -17566.963036 -16252.774073     42.489844
PR08   1995.707421 -25383.802019  -1157.324323    -67.602305
PR09  21950.051798   7470.355188  10566.330992     81.729102
PR11  -3398.905622 -13959.084791  21094.140333     24.720066
PR12 -18510.404292 -16015.556649   7178.209753     21.985471
PR13 -22141.145039  -8722.972294  -9193.088398    -27.735141
PR14 -12370.615614   4639.319639 -21807.561645     24.215901
PR15   4168.997945  14458.740240 -20572.891235     93.243430
PR17 -21321.296989  13089.064023   4853.938012    568.581807
PR18  -9653.764668  14157.041742  18929.634718     46.833655
PR19   5723.208584   8734.410725  23274.748675   -207.073138
PR20  21558.039198  -3329.307037  13205.921331    -80.089587
PR21  20748.325698 -13409.329691  -6426.032760   -341.091601
PR22   9347.199047 -13962.501083 -19161.965597     14.291857
PR24 -21835.273923   4144.753936 -12476.854689    119.988486
EOF
